ONEWEB-0020             
1 45133U 20008C   24280.39773593 -.00000581  00000+0 -17020-2 0  9995
2 45133  87.8962 159.4317 0001778  70.4012 289.7307 13.10374869227307
ONEWEB-0021             
1 45134U 20008D   24280.41268422  .00000292  00000+0  79946-3 0  9992
2 45134  87.8968 159.4495 0001607  80.5076 279.6233 13.10376325227613
ONEWEB-0023             
1 45136U 20008F   24280.42514540  .00000687  00000+0  19325-2 0  9992
2 45136  87.8962 159.4357 0001325  65.6686 294.4580 13.10373266227042
ONEWEB-0025             
1 45138U 20008H   24280.41434683  .00000332  00000+0  91460-3 0  9990
2 45138  87.8955 159.4144 0001448  76.3110 283.8179 13.10375440227533
ONEWEB-0032             
1 45141U 20008L   24280.42929604  .00000731  00000+0  20563-2 0  9995
2 45141  87.8953 159.4592 0001463  78.6050 281.5242 13.10373821227264
